[Satellite]
VERSION=1.1
NAME=ZHUHAI-1 02 (CAS 4B)
NICKNAME=ZHUHAI-1 02 (CAS 4B)
TLE1=1 42759U 17034B   17186.29135351  .00000033  00000-0  15690-4 0  9995
TLE2=2 42759  43.0173 187.1420 0006377 101.0083 216.4708 15.08906609  3034
